{
  "type": "FeatureCollection",
  "features": [
    {
      "type": "Feature",
      "properties": {
        "norad_id": 30656,
        "name": "FENGYUN 1C DEB",
        "group": "fengyun-1c-debris",
        "lat": 54.59706225548304,
        "lon": 5.880216020085518,
        "alt_km": 728.6278554109485,
        "timestamp": "2025-12-24T03:53:29.924906+00:00",
        "meta_object_name": "FENGYUN 1C DEB",
        "meta_object_id": "1999-025APN",
        "meta_epoch": "2025-12-23T17:21:13.191840",
        "meta_mean_motion": 14.45498643,
        "meta_eccentricity": 0.0030089,
        "meta_inclination": 99.0185,
        "meta_ra_of_asc_node": 172.5019,
        "meta_arg_of_pericenter": 53.1969,
        "meta_mean_anomaly": 307.1975,
        "meta_ephemeris_type": 0,
        "meta_classification_type": "U",
        "meta_norad_cat_id": 30656,
        "meta_element_set_no": 999,
        "meta_rev_at_epoch": 97244,
        "meta_bstar": 0.0023944,
        "meta_mean_motion_dot": 8.449e-05,
        "meta_mean_motion_ddot": 0,
        "tle_line1": "1 30656U 99025APN 25357.72306935  .00008449  00000+0  23944-2 0  9990",
        "tle_line2": "2 30656  99.0185 172.5019 0030089  53.1969 307.1975 14.45498643972448"
      },
      "geometry": {
        "type": "Point",
        "coordinates": [
          5.880216020085518,
          54.59706225548304
        ]
      }
    },
    {
      "type": "Feature",
      "properties": {
        "norad_id": 30657,
        "name": "FENGYUN 1C DEB",
        "group": "fengyun-1c-debris",
        "lat": -36.46458736290098,
        "lon": 103.12911035169172,
        "alt_km": 757.7496009917058,
        "timestamp": "2025-12-24T03:53:29.924917+00:00",
        "meta_object_name": "FENGYUN 1C DEB",
        "meta_object_id": "1999-025APP",
        "meta_epoch": "2025-12-22T05:25:29.962272",
        "meta_mean_motion": 14.38707271,
        "meta_eccentricity": 0.00162493,
        "meta_inclination": 98.8361,
        "meta_ra_of_asc_node": 94.5355,
        "meta_arg_of_pericenter": 314.359,
        "meta_mean_anomaly": 66.5734,
        "meta_ephemeris_type": 0,
        "meta_classification_type": "U",
        "meta_norad_cat_id": 30657,
        "meta_element_set_no": 999,
        "meta_rev_at_epoch": 97369,
        "meta_bstar": 0.0021018714,
        "meta_mean_motion_dot": 6.417e-05,
        "meta_mean_motion_ddot": 0,
        "tle_line1": "1 30657U 99025APP 25356.22604123  .00006417  00000+0  21019-2 0  9999",
        "tle_line2": "2 30657  98.8361  94.5355 0016249 314.3590  66.5734 14.38707271973691"
      },
      "geometry": {
        "type": "Point",
        "coordinates": [
          103.12911035169172,
          -36.46458736290098
        ]
      }
    },
    {
      "type": "Feature",
      "properties": {
        "norad_id": 30658,
        "name": "FENGYUN 1C DEB",
        "group": "fengyun-1c-debris",
        "lat": -69.90640431005978,
        "lon": -174.43736546365275,
        "alt_km": 867.2266085997162,
        "timestamp": "2025-12-24T03:53:29.924927+00:00",
        "meta_object_name": "FENGYUN 1C DEB",
        "meta_object_id": "1999-025APQ",
        "meta_epoch": "2025-12-18T13:23:50.214912",
        "meta_mean_motion": 13.87228138,
        "meta_eccentricity": 0.01842986,
        "meta_inclination": 98.4389,
        "meta_ra_of_asc_node": 24.4397,
        "meta_arg_of_pericenter": 211.7114,
        "meta_mean_anomaly": 147.2839,
        "meta_ephemeris_type": 0,
        "meta_classification_type": "U",
        "meta_norad_cat_id": 30658,
        "meta_element_set_no": 999,
        "meta_rev_at_epoch": 94765,
        "meta_bstar": 0.001331943,
        "meta_mean_motion_dot": 1.751e-05,
        "meta_mean_motion_ddot": 0,
        "tle_line1": "1 30658U 99025APQ 25352.55822008  .00001751  00000+0  13319-2 0  9996",
        "tle_line2": "2 30658  98.4389  24.4397 0184298 211.7114 147.2839 13.87228138947651"
      },
      "geometry": {
        "type": "Point",
        "coordinates": [
          -174.43736546365275,
          -69.90640431005978
        ]
      }
    },
    {
      "type": "Feature",
      "properties": {
        "norad_id": 30660,
        "name": "FENGYUN 1C DEB",
        "group": "fengyun-1c-debris",
        "lat": 33.788655682074584,
        "lon": -79.5872860271732,
        "alt_km": 686.3780628036366,
        "timestamp": "2025-12-24T03:53:29.924938+00:00",
        "meta_object_name": "FENGYUN 1C DEB",
        "meta_object_id": "1999-025APS",
        "meta_epoch": "2025-12-23T12:46:26.303232",
        "meta_mean_motion": 14.87656716,
        "meta_eccentricity": 0.0136421,
        "meta_inclination": 98.1389,
        "meta_ra_of_asc_node": 94.2713,
        "meta_arg_of_pericenter": 299.0591,
        "meta_mean_anomaly": 75.9858,
        "meta_ephemeris_type": 0,
        "meta_classification_type": "U",
        "meta_norad_cat_id": 30660,
        "meta_element_set_no": 999,
        "meta_rev_at_epoch": 945,
        "meta_bstar": 0.00058276,
        "meta_mean_motion_dot": 6.231e-05,
        "meta_mean_motion_ddot": 0,
        "tle_line1": "1 30660U 99025APS 25357.53224888  .00006231  00000+0  58276-3 0  9994",
        "tle_line2": "2 30660  98.1389  94.2713 0136421 299.0591  75.9858 14.87656716  9454"
      },
      "geometry": {
        "type": "Point",
        "coordinates": [
          -79.5872860271732,
          33.788655682074584
        ]
      }
    },
    {
      "type": "Feature",
      "properties": {
        "norad_id": 30661,
        "name": "FENGYUN 1C DEB",
        "group": "fengyun-1c-debris",
        "lat": -11.920203870475023,
        "lon": 176.70781510029127,
        "alt_km": 731.6535368687064,
        "timestamp": "2025-12-24T03:53:29.924949+00:00",
        "meta_object_name": "FENGYUN 1C DEB",
        "meta_object_id": "1999-025APT",
        "meta_epoch": "2025-12-23T17:48:31.597632",
        "meta_mean_motion": 14.21148605,
        "meta_eccentricity": 0.0144364,
        "meta_inclination": 99.4872,
        "meta_ra_of_asc_node": 174.2338,
        "meta_arg_of_pericenter": 14.6896,
        "meta_mean_anomaly": 345.8407,
        "meta_ephemeris_type": 0,
        "meta_classification_type": "U",
        "meta_norad_cat_id": 30661,
        "meta_element_set_no": 999,
        "meta_rev_at_epoch": 98058,
        "meta_bstar": 0.00011253,
        "meta_mean_motion_dot": 2.21e-06,
        "meta_mean_motion_ddot": 0,
        "tle_line1": "1 30661U 99025APT 25357.74203238  .00000221  00000+0  11253-3 0  9991",
        "tle_line2": "2 30661  99.4872 174.2338 0144364  14.6896 345.8407 14.21148605980584"
      },
      "geometry": {
        "type": "Point",
        "coordinates": [
          176.70781510029127,
          -11.920203870475023
        ]
      }
    },
    {
      "type": "Feature",
      "properties": {
        "norad_id": 30662,
        "name": "FENGYUN 1C DEB",
        "group": "fengyun-1c-debris",
        "lat": 80.58998110683835,
        "lon": -19.381676758961003,
        "alt_km": 830.852449031212,
        "timestamp": "2025-12-24T03:53:29.924959+00:00",
        "meta_object_name": "FENGYUN 1C DEB",
        "meta_object_id": "1999-025APU",
        "meta_epoch": "2025-12-22T11:33:16.091136",
        "meta_mean_motion": 14.22417109,
        "meta_eccentricity": 0.00336775,
        "meta_inclination": 99.0515,
        "meta_ra_of_asc_node": 53.018,
        "meta_arg_of_pericenter": 243.1052,
        "meta_mean_anomaly": 242.8592,
        "meta_ephemeris_type": 0,
        "meta_classification_type": "U",
        "meta_norad_cat_id": 30662,
        "meta_element_set_no": 999,
        "meta_rev_at_epoch": 96777,
        "meta_bstar": 0.0014345944,
        "meta_mean_motion_dot": 3.168e-05,
        "meta_mean_motion_ddot": 0,
        "tle_line1": "1 30662U 99025APU 25356.48143624  .00003168  00000+0  14346-2 0  9992",
        "tle_line2": "2 30662  99.0515  53.0180 0033677 243.1052 242.8592 14.22417109967777"
      },
      "geometry": {
        "type": "Point",
        "coordinates": [
          -19.381676758961003,
          80.58998110683835
        ]
      }
    },
    {
      "type": "Feature",
      "properties": {
        "norad_id": 30663,
        "name": "FENGYUN 1C DEB",
        "group": "fengyun-1c-debris",
        "lat": -34.00697000059878,
        "lon": 87.61043203971985,
        "alt_km": 1280.4099520528562,
        "timestamp": "2025-12-24T03:53:29.924970+00:00",
        "meta_object_name": "FENGYUN 1C DEB",
        "meta_object_id": "1999-025APV",
        "meta_epoch": "2025-12-23T05:06:25.082784",
        "meta_mean_motion": 13.2319364,
        "meta_eccentricity": 0.0649196,
        "meta_inclination": 99.3034,
        "meta_ra_of_asc_node": 273.1066,
        "meta_arg_of_pericenter": 111.1171,
        "meta_mean_anomaly": 256.0579,
        "meta_ephemeris_type": 0,
        "meta_classification_type": "U",
        "meta_norad_cat_id": 30663,
        "meta_element_set_no": 999,
        "meta_rev_at_epoch": 89186,
        "meta_bstar": 0.0028916729,
        "meta_mean_motion_dot": 3.763e-05,
        "meta_mean_motion_ddot": 0,
        "tle_line1": "1 30663U 99025APV 25357.21279031  .00003763  00000+0  28917-2 0  9997",
        "tle_line2": "2 30663  99.3034 273.1066 0649196 111.1171 256.0579 13.23193640891869"
      },
      "geometry": {
        "type": "Point",
        "coordinates": [
          87.61043203971985,
          -34.00697000059878
        ]
      }
    }
  ]
}